SL-16 R/B               
1 22566U 93016B   26047.57673540 -.00000237  00000+0 -97334-4 0  9999
2 22566  71.0047 259.5267 0010508 343.0145  17.0625 14.15300921699182
COSMOS 2242             
1 22626U 93024A   26047.17251249  .00001850  00000+0  16031-3 0  9993
2 22626  82.5183 287.2991 0017036  22.8338 337.3638 14.96459774777176
SL-16 R/B               
1 22803U 93059B   26047.44367251 -.00000155  00000+0 -52750-4 0  9997
2 22803  70.9890  55.9304 0019351 245.9009 114.0091 14.17227724676523
ARIANE 40 R/B           
1 22830U 93061H   26047.60968598  .00000193  00000+0  86473-4 0  9998
2 22830  98.4962 116.9085 0010305 353.0293   7.0746 14.32849383691082
COSMOS 2278             
1 23087U 94023A   26047.59269699  .00000129  00000+0  92052-4 0  9995
2 23087  71.0504 219.2343 0006975  54.6172 305.5601 14.14364314641827
SL-16 R/B               
1 23088U 94023B   26047.57804555  .00000348  00000+0  20455-3 0  9990
2 23088  70.9994 115.2271 0004745 305.8510  54.2172 14.15007324643104
SL-16 R/B               
1 23343U 94074B   26047.63287993  .00000491  00000+0  72528-4 0  9996
2 23343  97.7138  79.3006 0005197 295.6007 177.2801 14.79382199684139
SL-16 R/B               
1 23405U 94077B   26047.42656037  .00000288  00000+0  17161-3 0  9999
2 23405  70.9828  37.2209 0003969 231.6063 128.4704 14.15561943613220
ARIANE 40+ R/B          
1 23561U 95021B   26047.63280285  .00000294  00000+0  10772-3 0  9991
2 23561  98.4543 119.3961 0006557 195.0854 289.6103 14.39756519616212
SL-16 R/B               
1 23705U 95058B   26047.57382449 -.00000029  00000+0  94379-5 0  9993
2 23705  71.0197 224.5857 0011645 161.7527 198.4016 14.15495901564860
SL-16 R/B               
1 24298U 96051B   26047.56547746  .00000085  00000+0  72410-4 0  9999
2 24298  70.7570 219.9496 0016911 178.0462 182.0727 14.12409653518667
ORBVIEW 2 (SEASTAR)     
1 24883U 97037A   26047.43743723  .00000324  00000+0  12888-3 0  9991
2 24883  98.8529 211.1907 0003192 114.9183 245.2334 14.35478248505426
