CCSDS_OMM_VERS = 2.0
CREATION_DATE  = 
ORIGINATOR     = 

OBJECT_NAME    = SL-16 R/B
OBJECT_ID      = 1993-016B
CENTER_NAME    = EARTH
REF_FRAME      = TEME
TIME_SYSTEM    = UTC
MEAN_ELEMENT_THEORY = SGP/SGP4

EPOCH          = 2026-02-16T13:50:29.938560
MEAN_MOTION    = 14.15300921
ECCENTRICITY   = .00105082
INCLINATION    = 71.0047
RA_OF_ASC_NODE = 259.5267
ARG_OF_PERICENTER = 343.0145
MEAN_ANOMALY   = 17.0625

EPHEMERIS_TYPE = 0
CLASSIFICATION_TYPE = U
NORAD_CAT_ID   = 22566
ELEMENT_SET_NO = 999
REV_AT_EPOCH   = 69918
BSTAR          = -.97333741E-4
MEAN_MOTION_DOT = -.237E-5
MEAN_MOTION_DDOT = 0

CCSDS_OMM_VERS = 2.0
CREATION_DATE  = 
ORIGINATOR     = 

OBJECT_NAME    = COSMOS 2242
OBJECT_ID      = 1993-024A
CENTER_NAME    = EARTH
REF_FRAME      = TEME
TIME_SYSTEM    = UTC
MEAN_ELEMENT_THEORY = SGP/SGP4

EPOCH          = 2026-02-16T04:08:25.079136
MEAN_MOTION    = 14.96459774
ECCENTRICITY   = .00170363
INCLINATION    = 82.5183
RA_OF_ASC_NODE = 287.2991
ARG_OF_PERICENTER = 22.8338
MEAN_ANOMALY   = 337.3638

EPHEMERIS_TYPE = 0
CLASSIFICATION_TYPE = U
NORAD_CAT_ID   = 22626
ELEMENT_SET_NO = 999
REV_AT_EPOCH   = 77717
BSTAR          = .16031063E-3
MEAN_MOTION_DOT = .185E-4
MEAN_MOTION_DDOT = 0

CCSDS_OMM_VERS = 2.0
CREATION_DATE  = 
ORIGINATOR     = 

OBJECT_NAME    = SL-16 R/B
OBJECT_ID      = 1993-059B
CENTER_NAME    = EARTH
REF_FRAME      = TEME
TIME_SYSTEM    = UTC
MEAN_ELEMENT_THEORY = SGP/SGP4

EPOCH          = 2026-02-16T10:38:53.304864
MEAN_MOTION    = 14.17227724
ECCENTRICITY   = .00193518
INCLINATION    = 70.9890
RA_OF_ASC_NODE = 55.9304
ARG_OF_PERICENTER = 245.9009
MEAN_ANOMALY   = 114.0091

EPHEMERIS_TYPE = 0
CLASSIFICATION_TYPE = U
NORAD_CAT_ID   = 22803
ELEMENT_SET_NO = 999
REV_AT_EPOCH   = 67652
BSTAR          = -.52750215E-4
MEAN_MOTION_DOT = -.155E-5
MEAN_MOTION_DDOT = 0

CCSDS_OMM_VERS = 2.0
CREATION_DATE  = 
ORIGINATOR     = 

OBJECT_NAME    = ARIANE 40 R/B
OBJECT_ID      = 1993-061H
CENTER_NAME    = EARTH
REF_FRAME      = TEME
TIME_SYSTEM    = UTC
MEAN_ELEMENT_THEORY = SGP/SGP4

EPOCH          = 2026-02-16T14:37:56.868672
MEAN_MOTION    = 14.32849383
ECCENTRICITY   = .00103059
INCLINATION    = 98.4962
RA_OF_ASC_NODE = 116.9085
ARG_OF_PERICENTER = 353.0293
MEAN_ANOMALY   = 7.0746

EPHEMERIS_TYPE = 0
CLASSIFICATION_TYPE = U
NORAD_CAT_ID   = 22830
ELEMENT_SET_NO = 999
REV_AT_EPOCH   = 69108
BSTAR          = .86473039E-4
MEAN_MOTION_DOT = .193E-5
MEAN_MOTION_DDOT = 0

CCSDS_OMM_VERS = 2.0
CREATION_DATE  = 
ORIGINATOR     = 

OBJECT_NAME    = COSMOS 2278
OBJECT_ID      = 1994-023A
CENTER_NAME    = EARTH
REF_FRAME      = TEME
TIME_SYSTEM    = UTC
MEAN_ELEMENT_THEORY = SGP/SGP4

EPOCH          = 2026-02-16T14:13:29.019936
MEAN_MOTION    = 14.14364314
ECCENTRICITY   = .00069755
INCLINATION    = 71.0504
RA_OF_ASC_NODE = 219.2343
ARG_OF_PERICENTER = 54.6172
MEAN_ANOMALY   = 305.5601

EPHEMERIS_TYPE = 0
CLASSIFICATION_TYPE = U
NORAD_CAT_ID   = 23087
ELEMENT_SET_NO = 999
REV_AT_EPOCH   = 64182
BSTAR          = .92051837E-4
MEAN_MOTION_DOT = .129E-5
MEAN_MOTION_DDOT = 0

CCSDS_OMM_VERS = 2.0
CREATION_DATE  = 
ORIGINATOR     = 

OBJECT_NAME    = SL-16 R/B
OBJECT_ID      = 1994-023B
CENTER_NAME    = EARTH
REF_FRAME      = TEME
TIME_SYSTEM    = UTC
MEAN_ELEMENT_THEORY = SGP/SGP4

EPOCH          = 2026-02-16T13:52:23.135520
MEAN_MOTION    = 14.15007324
ECCENTRICITY   = .00047457
INCLINATION    = 70.9994
RA_OF_ASC_NODE = 115.2271
ARG_OF_PERICENTER = 305.8510
MEAN_ANOMALY   = 54.2172

EPHEMERIS_TYPE = 0
CLASSIFICATION_TYPE = U
NORAD_CAT_ID   = 23088
ELEMENT_SET_NO = 999
REV_AT_EPOCH   = 64310
BSTAR          = .20454861E-3
MEAN_MOTION_DOT = .348E-5
MEAN_MOTION_DDOT = 0

CCSDS_OMM_VERS = 2.0
CREATION_DATE  = 
ORIGINATOR     = 

OBJECT_NAME    = SL-16 R/B
OBJECT_ID      = 1994-074B
CENTER_NAME    = EARTH
REF_FRAME      = TEME
TIME_SYSTEM    = UTC
MEAN_ELEMENT_THEORY = SGP/SGP4

EPOCH          = 2026-02-16T15:11:20.825952
MEAN_MOTION    = 14.79382199
ECCENTRICITY   = .00051975
INCLINATION    = 97.7138
RA_OF_ASC_NODE = 79.3006
ARG_OF_PERICENTER = 295.6007
MEAN_ANOMALY   = 177.2801

EPHEMERIS_TYPE = 0
CLASSIFICATION_TYPE = U
NORAD_CAT_ID   = 23343
ELEMENT_SET_NO = 999
REV_AT_EPOCH   = 68413
BSTAR          = .72528233E-4
MEAN_MOTION_DOT = .491E-5
MEAN_MOTION_DDOT = 0

CCSDS_OMM_VERS = 2.0
CREATION_DATE  = 
ORIGINATOR     = 

OBJECT_NAME    = SL-16 R/B
OBJECT_ID      = 1994-077B
CENTER_NAME    = EARTH
REF_FRAME      = TEME
TIME_SYSTEM    = UTC
MEAN_ELEMENT_THEORY = SGP/SGP4

EPOCH          = 2026-02-16T10:14:14.815968
MEAN_MOTION    = 14.15561943
ECCENTRICITY   = .00039691
INCLINATION    = 70.9828
RA_OF_ASC_NODE = 37.2209
ARG_OF_PERICENTER = 231.6063
MEAN_ANOMALY   = 128.4704

EPHEMERIS_TYPE = 0
CLASSIFICATION_TYPE = U
NORAD_CAT_ID   = 23405
ELEMENT_SET_NO = 999
REV_AT_EPOCH   = 61322
BSTAR          = .17161271E-3
MEAN_MOTION_DOT = .288E-5
MEAN_MOTION_DDOT = 0

CCSDS_OMM_VERS = 2.0
CREATION_DATE  = 
ORIGINATOR     = 

OBJECT_NAME    = ARIANE 40+ R/B
OBJECT_ID      = 1995-021B
CENTER_NAME    = EARTH
REF_FRAME      = TEME
TIME_SYSTEM    = UTC
MEAN_ELEMENT_THEORY = SGP/SGP4

EPOCH          = 2026-02-16T15:11:14.166240
MEAN_MOTION    = 14.39756519
ECCENTRICITY   = .00065579
INCLINATION    = 98.4543
RA_OF_ASC_NODE = 119.3961
ARG_OF_PERICENTER = 195.0854
MEAN_ANOMALY   = 289.6103

EPHEMERIS_TYPE = 0
CLASSIFICATION_TYPE = U
NORAD_CAT_ID   = 23561
ELEMENT_SET_NO = 999
REV_AT_EPOCH   = 61621
BSTAR          = .1077191E-3
MEAN_MOTION_DOT = .294E-5
MEAN_MOTION_DDOT = 0

CCSDS_OMM_VERS = 2.0
CREATION_DATE  = 
ORIGINATOR     = 

OBJECT_NAME    = SL-16 R/B
OBJECT_ID      = 1995-058B
CENTER_NAME    = EARTH
REF_FRAME      = TEME
TIME_SYSTEM    = UTC
MEAN_ELEMENT_THEORY = SGP/SGP4

EPOCH          = 2026-02-16T13:46:18.435936
MEAN_MOTION    = 14.15495901
ECCENTRICITY   = .00116459
INCLINATION    = 71.0197
RA_OF_ASC_NODE = 224.5857
ARG_OF_PERICENTER = 161.7527
MEAN_ANOMALY   = 198.4016

EPHEMERIS_TYPE = 0
CLASSIFICATION_TYPE = U
NORAD_CAT_ID   = 23705
ELEMENT_SET_NO = 999
REV_AT_EPOCH   = 56486
BSTAR          = .9437861E-5
MEAN_MOTION_DOT = -.29E-6
MEAN_MOTION_DDOT = 0

CCSDS_OMM_VERS = 2.0
CREATION_DATE  = 
ORIGINATOR     = 

OBJECT_NAME    = SL-16 R/B
OBJECT_ID      = 1996-051B
CENTER_NAME    = EARTH
REF_FRAME      = TEME
TIME_SYSTEM    = UTC
MEAN_ELEMENT_THEORY = SGP/SGP4

EPOCH          = 2026-02-16T13:34:17.252544
MEAN_MOTION    = 14.12409653
ECCENTRICITY   = .00169117
INCLINATION    = 70.7570
RA_OF_ASC_NODE = 219.9496
ARG_OF_PERICENTER = 178.0462
MEAN_ANOMALY   = 182.0727

EPHEMERIS_TYPE = 0
CLASSIFICATION_TYPE = U
NORAD_CAT_ID   = 24298
ELEMENT_SET_NO = 999
REV_AT_EPOCH   = 51866
BSTAR          = .72410082E-4
MEAN_MOTION_DOT = .85E-6
MEAN_MOTION_DDOT = 0

CCSDS_OMM_VERS = 2.0
CREATION_DATE  = 
ORIGINATOR     = 

OBJECT_NAME    = ORBVIEW 2 (SEASTAR)
OBJECT_ID      = 1997-037A
CENTER_NAME    = EARTH
REF_FRAME      = TEME
TIME_SYSTEM    = UTC
MEAN_ELEMENT_THEORY = SGP/SGP4

EPOCH          = 2026-02-16T10:29:54.576672
MEAN_MOTION    = 14.35478248
ECCENTRICITY   = .0003192
INCLINATION    = 98.8529
RA_OF_ASC_NODE = 211.1907
ARG_OF_PERICENTER = 114.9183
MEAN_ANOMALY   = 245.2334

EPHEMERIS_TYPE = 0
CLASSIFICATION_TYPE = U
NORAD_CAT_ID   = 24883
ELEMENT_SET_NO = 999
REV_AT_EPOCH   = 50542
BSTAR          = .12887533E-3
MEAN_MOTION_DOT = .324E-5
MEAN_MOTION_DDOT = 0

